[{"OBJECT_NAME":"STARLINK-36870","OBJECT_ID":"2026-035U","EPOCH":"2026-03-04T13:25:47.799264","MEAN_MOTION":16.00269203,"ECCENTRICITY":8.913e-5,"INCLINATION":97.276,"RA_OF_ASC_NODE":355.5181,"ARG_OF_PERICENTER":38.1993,"MEAN_ANOMALY":321.9349,"EPHEMERIS_TYPE":0,"CLASSIFICATION_TYPE":"U","NORAD_CAT_ID":67897,"ELEMENT_SET_NO":999,"REV_AT_EPOCH":302,"BSTAR":-0.00051056016,"MEAN_MOTION_DOT":-0.00263452,"MEAN_MOTION_DDOT":2.7714169e-5},{"OBJECT_NAME":"STARLINK-36810","OBJECT_ID":"2026-035V","EPOCH":"2026-03-04T07:24:41.042304","MEAN_MOTION":16.00780605,"ECCENTRICITY":9.567e-5,"INCLINATION":97.2753,"RA_OF_ASC_NODE":355.2471,"ARG_OF_PERICENTER":112.9016,"MEAN_ANOMALY":247.2364,"EPHEMERIS_TYPE":0,"CLASSIFICATION_TYPE":"U","NORAD_CAT_ID":67898,"ELEMENT_SET_NO":999,"REV_AT_EPOCH":298,"BSTAR":-0.0005282792,"MEAN_MOTION_DOT":-0.00280598,"MEAN_MOTION_DDOT":3.1236518e-5},{"OBJECT_NAME":"STARLINK-36878","OBJECT_ID":"2026-035W","EPOCH":"2026-03-04T13:23:02.390784","MEAN_MOTION":16.00563329,"ECCENTRICITY":9.576e-5,"INCLINATION":97.2744,"RA_OF_ASC_NODE":355.5215,"ARG_OF_PERICENTER":102.8484,"MEAN_ANOMALY":257.2902,"EPHEMERIS_TYPE":0,"CLASSIFICATION_TYPE":"U","NORAD_CAT_ID":67899,"ELEMENT_SET_NO":999,"REV_AT_EPOCH":302,"BSTAR":-0.0006215772,"MEAN_MOTION_DOT":-0.00325919,"MEAN_MOTION_DDOT":4.0945512e-5},{"OBJECT_NAME":"STARLINK-36361","OBJECT_ID":"2026-035X","EPOCH":"2026-03-04T13:22:01.656768","MEAN_MOTION":16.00794751,"ECCENTRICITY":2.754e-5,"INCLINATION":97.2745,"RA_OF_ASC_NODE":355.5225,"ARG_OF_PERICENTER":132.9674,"MEAN_ANOMALY":227.1628,"EPHEMERIS_TYPE":0,"CLASSIFICATION_TYPE":"U","NORAD_CAT_ID":67900,"ELEMENT_SET_NO":999,"REV_AT_EPOCH":302,"BSTAR":-0.00013386519,"MEAN_MOTION_DOT":-0.00071718,"MEAN_MOTION_DDOT":4.195522e-6},{"OBJECT_NAME":"STARLINK-36336","OBJECT_ID":"2026-035Y","EPOCH":"2026-03-04T08:48:57.296448","MEAN_MOTION":16.01262092,"ECCENTRICITY":0.00017766,"INCLINATION":97.2744,"RA_OF_ASC_NODE":355.3203,"ARG_OF_PERICENTER":37.9588,"MEAN_ANOMALY":322.1816,"EPHEMERIS_TYPE":0,"CLASSIFICATION_TYPE":"U","NORAD_CAT_ID":67901,"ELEMENT_SET_NO":999,"REV_AT_EPOCH":299,"BSTAR":-0.00023903274,"MEAN_MOTION_DOT":-0.00130963,"MEAN_MOTION_DDOT":8.758232e-6},{"OBJECT_NAME":"STARLINK-36876","OBJECT_ID":"2026-035Z","EPOCH":"2026-03-04T00:00:00.999648","MEAN_MOTION":16.01665709,"ECCENTRICITY":0.00010918,"INCLINATION":97.275,"RA_OF_ASC_NODE":354.9178,"ARG_OF_PERICENTER":118.7727,"MEAN_ANOMALY":276.8029,"EPHEMERIS_TYPE":0,"CLASSIFICATION_TYPE":"U","NORAD_CAT_ID":67902,"ELEMENT_SET_NO":999,"REV_AT_EPOCH":284,"BSTAR":-0.0019706307,"MEAN_MOTION_DOT":-0.01093955,"MEAN_MOTION_DDOT":0.00039444628},{"OBJECT_NAME":"STARLINK-36257","OBJECT_ID":"2026-035AA","EPOCH":"2026-03-04T07:20:09.786048","MEAN_MOTION":16.01284235,"ECCENTRICITY":6.333e-5,"INCLINATION":97.2739,"RA_OF_ASC_NODE":355.2501,"ARG_OF_PERICENTER":110.2986,"MEAN_ANOMALY":249.8362,"EPHEMERIS_TYPE":0,"CLASSIFICATION_TYPE":"U","NORAD_CAT_ID":67903,"ELEMENT_SET_NO":999,"REV_AT_EPOCH":298,"BSTAR":-0.000567965,"MEAN_MOTION_DOT":-0.00310406,"MEAN_MOTION_DDOT":3.7765238e-5},{"OBJECT_NAME":"STARLINK-36301","OBJECT_ID":"2026-037A","EPOCH":"2026-03-03T14:00:03.000384","MEAN_MOTION":15.97346447,"ECCENTRICITY":0.0001381,"INCLINATION":43.0002,"RA_OF_ASC_NODE":236.3782,"ARG_OF_PERICENTER":264.0887,"MEAN_ANOMALY":318.0085,"EPHEMERIS_TYPE":0,"CLASSIFICATION_TYPE":"U","NORAD_CAT_ID":67932,"ELEMENT_SET_NO":999,"REV_AT_EPOCH":212,"BSTAR":-0.0029675,"MEAN_MOTION_DOT":-0.01357719,"MEAN_MOTION_DDOT":0.00055759},{"OBJECT_NAME":"STARLINK-36852","OBJECT_ID":"2026-037B","EPOCH":"2026-03-03T14:00:03.000384","MEAN_MOTION":15.97460287,"ECCENTRICITY":0.0001249,"INCLINATION":43.0004,"RA_OF_ASC_NODE":236.3747,"ARG_OF_PERICENTER":264.222,"MEAN_ANOMALY":319.2231,"EPHEMERIS_TYPE":0,"CLASSIFICATION_TYPE":"U","NORAD_CAT_ID":67933,"ELEMENT_SET_NO":999,"REV_AT_EPOCH":221,"BSTAR":-0.0029446,"MEAN_MOTION_DOT":-0.01355793,"MEAN_MOTION_DDOT":0.0005568},{"OBJECT_NAME":"STARLINK-36861","OBJECT_ID":"2026-037C","EPOCH":"2026-03-03T14:00:03.000384","MEAN_MOTION":15.97597259,"ECCENTRICITY":0.0001361,"INCLINATION":43.0003,"RA_OF_ASC_NODE":236.3701,"ARG_OF_PERICENTER":268.5302,"MEAN_ANOMALY":316.8494,"EPHEMERIS_TYPE":0,"CLASSIFICATION_TYPE":"U","NORAD_CAT_ID":67934,"ELEMENT_SET_NO":999,"REV_AT_EPOCH":221,"BSTAR":-0.0029234,"MEAN_MOTION_DOT":-0.01356323,"MEAN_MOTION_DDOT":0.00055799},{"OBJECT_NAME":"STARLINK-36860","OBJECT_ID":"2026-037D","EPOCH":"2026-03-03T14:00:03.000384","MEAN_MOTION":15.97742292,"ECCENTRICITY":0.0001512,"INCLINATION":43.0003,"RA_OF_ASC_NODE":236.3654,"ARG_OF_PERICENTER":272.0924,"MEAN_ANOMALY":315.3019,"EPHEMERIS_TYPE":0,"CLASSIFICATION_TYPE":"U","NORAD_CAT_ID":67935,"ELEMENT_SET_NO":999,"REV_AT_EPOCH":221,"BSTAR":-0.0029201,"MEAN_MOTION_DOT":-0.01365707,"MEAN_MOTION_DDOT":0.00056593},{"OBJECT_NAME":"STARLINK-36848","OBJECT_ID":"2026-037E","EPOCH":"2026-03-03T14:00:03.000384","MEAN_MOTION":15.98009049,"ECCENTRICITY":0.0001546,"INCLINATION":43.0003,"RA_OF_ASC_NODE":236.3553,"ARG_OF_PERICENTER":270.1059,"MEAN_ANOMALY":321.0753,"EPHEMERIS_TYPE":0,"CLASSIFICATION_TYPE":"U","NORAD_CAT_ID":67936,"ELEMENT_SET_NO":999,"REV_AT_EPOCH":221,"BSTAR":-0.0028636,"MEAN_MOTION_DOT":-0.01359471,"MEAN_MOTION_DDOT":0.00056277},{"OBJECT_NAME":"STARLINK-36370","OBJECT_ID":"2026-037F","EPOCH":"2026-03-03T14:00:03.000384","MEAN_MOTION":15.97879454,"ECCENTRICITY":0.0001662,"INCLINATION":43.0005,"RA_OF_ASC_NODE":236.3601,"ARG_OF_PERICENTER":269.99,"MEAN_ANOMALY":319.4677,"EPHEMERIS_TYPE":0,"CLASSIFICATION_TYPE":"U","NORAD_CAT_ID":67937,"ELEMENT_SET_NO":999,"REV_AT_EPOCH":221,"BSTAR":-0.0028804,"MEAN_MOTION_DOT":-0.01357617,"MEAN_MOTION_DDOT":0.00056061},{"OBJECT_NAME":"STARLINK-36371","OBJECT_ID":"2026-037G","EPOCH":"2026-03-03T14:00:03.000384","MEAN_MOTION":15.98125376,"ECCENTRICITY":0.0001542,"INCLINATION":43.0003,"RA_OF_ASC_NODE":236.3511,"ARG_OF_PERICENTER":270.2563,"MEAN_ANOMALY":322.4725,"EPHEMERIS_TYPE":0,"CLASSIFICATION_TYPE":"U","NORAD_CAT_ID":67938,"ELEMENT_SET_NO":999,"REV_AT_EPOCH":221,"BSTAR":-0.0028331,"MEAN_MOTION_DOT":-0.01353827,"MEAN_MOTION_DDOT":0.00055918},{"OBJECT_NAME":"STARLINK-36246","OBJECT_ID":"2026-037H","EPOCH":"2026-03-03T14:00:03.000384","MEAN_MOTION":15.98239336,"ECCENTRICITY":0.0001674,"INCLINATION":43.0004,"RA_OF_ASC_NODE":236.3476,"ARG_OF_PERICENTER":270.5425,"MEAN_ANOMALY":323.7249,"EPHEMERIS_TYPE":0,"CLASSIFICATION_TYPE":"U","NORAD_CAT_ID":67939,"ELEMENT_SET_NO":999,"REV_AT_EPOCH":212,"BSTAR":-0.0027979,"MEAN_MOTION_DOT":-0.01345738,"MEAN_MOTION_DDOT":0.00055373},{"OBJECT_NAME":"STARLINK-36907","OBJECT_ID":"2026-037J","EPOCH":"2026-03-03T14:00:03.000384","MEAN_MOTION":15.98618727,"ECCENTRICITY":0.0001614,"INCLINATION":43.0003,"RA_OF_ASC_NODE":236.3336,"ARG_OF_PERICENTER":266.6299,"MEAN_ANOMALY":332.8743,"EPHEMERIS_TYPE":0,"CLASSIFICATION_TYPE":"U","NORAD_CAT_ID":67940,"ELEMENT_SET_NO":999,"REV_AT_EPOCH":221,"BSTAR":-0.0027232,"MEAN_MOTION_DOT":-0.01338137,"MEAN_MOTION_DDOT":0.00055021}]
